start=new Date('2022-11-25T00:00:00.000Z').valueOf();
sats=[{"CLASSIFICATION_TYPE":"U","REV_AT_EPOCH":"4282","SEMIMAJOR_AXIS":"6917.908","MEAN_MOTION_DOT":"-0.00000716","FILE":"3669335","MEAN_MOTION":"15.08830943","PERIOD":"95.438","OBJECT_ID":"2022-017BA","LAUNCH_DATE":"2022-02-25","OBJECT_TYPE":"PAYLOAD","PERIAPSIS":"538.371","SITE":"AFWTR","APOAPSIS":"541.175","INCLINATION":"53.2174","TLE_LINE2":"2 51816  53.2174 320.6144 0002027  41.0534 319.0610 15.08830943 42820","TIME_SYSTEM":"UTC","MEAN_ELEMENT_THEORY":"SGP4","ARG_OF_PERICENTER":"41.0534","MEAN_ANOMALY":"319.0610","ELEMENT_SET_NO":"999","TLE_LINE1":"1 51816U 22017BA  22328.69294306 -.00000716  00000-0 -26917-4 0  9994","EPOCH":"2022-11-24T16:37:50.280384","CENTER_NAME":"EARTH","BSTAR":"-0.00002691700000","RCS_SIZE":"LARGE","RA_OF_ASC_NODE":"320.6144","DECAY_DATE":null,"GP_ID":"218725148","NORAD_CAT_ID":"51816","REF_FRAME":"TEME","MEAN_MOTION_DDOT":"0.0000000000000","ECCENTRICITY":"0.00020270","OBJECT_NAME":"STARLINK-3603","COUNTRY_CODE":"US","EPHEMERIS_TYPE":"0"},{"SEMIMAJOR_AXIS":"6717.892","REV_AT_EPOCH":"4409","CLASSIFICATION_TYPE":"U","MEAN_MOTION_DOT":"-0.00001568","FILE":"3669022","OBJECT_TYPE":"PAYLOAD","OBJECT_ID":"2022-017BB","LAUNCH_DATE":"2022-02-25","MEAN_MOTION":"15.76715149","PERIOD":"91.329","PERIAPSIS":"337.841","TLE_LINE2":"2 51817  53.1992 230.1584 0002852  17.9938 342.1184 15.76715149 44096","INCLINATION":"53.1992","SITE":"AFWTR","APOAPSIS":"341.673","MEAN_ANOMALY":"342.1184","ARG_OF_PERICENTER":"17.9938","MEAN_ELEMENT_THEORY":"SGP4","TIME_SYSTEM":"UTC","TLE_LINE1":"1 51817U 22017BB  22328.15738978 -.00001568  00000-0 -55648-5 0  9994","ELEMENT_SET_NO":"999","EPOCH":"2022-11-24T03:46:38.476992","RA_OF_ASC_NODE":"230.1584","RCS_SIZE":"LARGE","BSTAR":"-0.00000556480000","CENTER_NAME":"EARTH","GP_ID":"218667338","DECAY_DATE":null,"NORAD_CAT_ID":"51817","ECCENTRICITY":"0.00028520","REF_FRAME":"TEME","MEAN_MOTION_DDOT":"0.0000000000000","COUNTRY_CODE":"US","EPHEMERIS_TYPE":"0","OBJECT_NAME":"STARLINK-3596"},{"CLASSIFICATION_TYPE":"U","REV_AT_EPOCH":"4047","SEMIMAJOR_AXIS":"6917.847","MEAN_MOTION_DOT":"0.00002884","FILE":"3669335","OBJECT_TYPE":"PAYLOAD","PERIOD":"95.437","MEAN_MOTION":"15.08850878","LAUNCH_DATE":"2022-03-03","OBJECT_ID":"2022-022A","PERIAPSIS":"537.974","TLE_LINE2":"2 51852  53.2175   9.8815 0002513  37.6456 322.4712 15.08850878 40475","SITE":"AFETR","APOAPSIS":"541.451","INCLINATION":"53.2175","ARG_OF_PERICENTER":"37.6456","MEAN_ANOMALY":"322.4712","TIME_SYSTEM":"UTC","MEAN_ELEMENT_THEORY":"SGP4","ELEMENT_SET_NO":"999","TLE_LINE1":"1 51852U 22022A   22328.85393755  .00002884  00000-0  19918-3 0  9994","EPOCH":"2022-11-24T20:29:40.204320","RA_OF_ASC_NODE":"9.8815","CENTER_NAME":"EARTH","RCS_SIZE":"LARGE","BSTAR":"0.00019918000000","GP_ID":"218725406","DECAY_DATE":null,"NORAD_CAT_ID":"51852","ECCENTRICITY":"0.00025130","MEAN_MOTION_DDOT":"0.0000000000000","REF_FRAME":"TEME","EPHEMERIS_TYPE":"0","COUNTRY_CODE":"US","OBJECT_NAME":"STARLINK-3542"},{"NORAD_CAT_ID":"51853","MEAN_MOTION_DDOT":"0.0000000000000","REF_FRAME":"TEME","ECCENTRICITY":"0.00020410","OBJECT_NAME":"STARLINK-3539","COUNTRY_CODE":"US","EPHEMERIS_TYPE":"0","EPOCH":"2022-11-24T20:34:57.790848","CENTER_NAME":"EARTH","RCS_SIZE":"MEDIUM","BSTAR":"0.00002923700000","RA_OF_ASC_NODE":"9.8709","DECAY_DATE":null,"GP_ID":"218725152","PERIAPSIS":"538.310","APOAPSIS":"541.134","SITE":"AFETR","INCLINATION":"53.2187","TLE_LINE2":"2 51853  53.2187   9.8709 0002041  43.7837 316.3316 15.08847617 41670","TIME_SYSTEM":"UTC","MEAN_ELEMENT_THEORY":"SGP4","ARG_OF_PERICENTER":"43.7837","MEAN_ANOMALY":"316.3316","ELEMENT_SET_NO":"999","TLE_LINE1":"1 51853U 22022B   22328.85761332  .00000177  00000-0  29237-4 0  9994","REV_AT_EPOCH":"4167","CLASSIFICATION_TYPE":"U","SEMIMAJOR_AXIS":"6917.857","MEAN_MOTION_DOT":"0.00000177","FILE":"3669335","MEAN_MOTION":"15.08847617","PERIOD":"95.437","LAUNCH_DATE":"2022-03-03","OBJECT_ID":"2022-022B","OBJECT_TYPE":"PAYLOAD"},{"EPHEMERIS_TYPE":"0","COUNTRY_CODE":"US","OBJECT_NAME":"STARLINK-3541","ECCENTRICITY":"0.00023220","MEAN_MOTION_DDOT":"0.0000000000000","REF_FRAME":"TEME","NORAD_CAT_ID":"51854","GP_ID":"218724406","DECAY_DATE":null,"RA_OF_ASC_NODE":"9.8939","RCS_SIZE":"LARGE","BSTAR":"0.00007175800000","CENTER_NAME":"EARTH","EPOCH":"2022-11-24T20:24:22.320576","TLE_LINE1":"1 51854U 22022C   22328.85025834  .00000854  00000-0  71758-4 0  9992","ELEMENT_SET_NO":"999","MEAN_ANOMALY":"321.2379","ARG_OF_PERICENTER":"38.8780","MEAN_ELEMENT_THEORY":"SGP4","TIME_SYSTEM":"UTC","TLE_LINE2":"2 51854  53.2183   9.8939 0002322  38.8780 321.2379 15.08843317 41730","INCLINATION":"53.2183","SITE":"AFETR","APOAPSIS":"541.342","PERIAPSIS":"538.129","OBJECT_TYPE":"PAYLOAD","OBJECT_ID":"2022-022C","LAUNCH_DATE":"2022-03-03","MEAN_MOTION":"15.08843317","PERIOD":"95.437","FILE":"3669335","MEAN_MOTION_DOT":"0.00000854","SEMIMAJOR_AXIS":"6917.870","REV_AT_EPOCH":"4173","CLASSIFICATION_TYPE":"U"},{"DECAY_DATE":null,"GP_ID":"218724656","EPOCH":"2022-11-24T20:13:45.767712","CENTER_NAME":"EARTH","BSTAR":"0.00024884000000","RCS_SIZE":"LARGE","RA_OF_ASC_NODE":"9.9388","REF_FRAME":"TEME","MEAN_MOTION_DDOT":"0.0000000000000","ECCENTRICITY":"0.00026160","OBJECT_NAME":"STARLINK-3545","EPHEMERIS_TYPE":"0","COUNTRY_CODE":"US","NORAD_CAT_ID":"51855","FILE":"3669335","PERIOD":"95.437","MEAN_MOTION":"15.08844426","OBJECT_ID":"2022-022D","LAUNCH_DATE":"2022-03-03","OBJECT_TYPE":"PAYLOAD","CLASSIFICATION_TYPE":"U","REV_AT_EPOCH":"4168","SEMIMAJOR_AXIS":"6917.867","MEAN_MOTION_DOT":"0.00003675","TIME_SYSTEM":"UTC","MEAN_ELEMENT_THEORY":"SGP4","ARG_OF_PERICENTER":"35.0215","MEAN_ANOMALY":"325.0949","ELEMENT_SET_NO":"999","TLE_LINE1":"1 51855U 22022D   22328.84289083  .00003675  00000-0  24884-3 0  9991","PERIAPSIS":"537.922","APOAPSIS":"541.542","SITE":"AFETR","INCLINATION":"53.2185","TLE_LINE2":"2 51855  53.2185   9.9388 0002616  35.0215 325.0949 15.08844426 41681"},{"MEAN_MOTION":"15.08850844","PERIOD":"95.437","LAUNCH_DATE":"2022-03-03","OBJECT_ID":"2022-022E","OBJECT_TYPE":"PAYLOAD","FILE":"3669335","MEAN_MOTION_DOT":"0.00001232","CLASSIFICATION_TYPE":"U","REV_AT_EPOCH":"4176","SEMIMAJOR_AXIS":"6917.847","ELEMENT_SET_NO":"999","TLE_LINE1":"1 51856U 22022E   22328.84656919  .00001232  00000-0  95499-4 0  9996","TIME_SYSTEM":"UTC","MEAN_ELEMENT_THEORY":"SGP4","ARG_OF_PERICENTER":"42.2774","MEAN_ANOMALY":"317.8387","APOAPSIS":"541.231","SITE":"AFETR","INCLINATION":"53.2193","TLE_LINE2":"2 51856  53.2193   9.9227 0002196  42.2774 317.8387 15.08850844 41761","PERIAPSIS":"538.193","DECAY_DATE":null,"GP_ID":"218724908","CENTER_NAME":"EARTH","RCS_SIZE":"LARGE","BSTAR":"0.00009549900000","RA_OF_ASC_NODE":"9.9227","EPOCH":"2022-11-24T20:19:03.578016","OBJECT_NAME":"STARLINK-3568","COUNTRY_CODE":"US","EPHEMERIS_TYPE":"0","MEAN_MOTION_DDOT":"0.0000000000000","REF_FRAME":"TEME","ECCENTRICITY":"0.00021960","NORAD_CAT_ID":"51856"},{"REF_FRAME":"TEME","MEAN_MOTION_DDOT":"0.0000000000000","ECCENTRICITY":"0.00019300","OBJECT_NAME":"STARLINK-3571","COUNTRY_CODE":"US","EPHEMERIS_TYPE":"0","NORAD_CAT_ID":"51857","DECAY_DATE":null,"GP_ID":"218666592","EPOCH":"2022-11-24T10:30:51.845184","CENTER_NAME":"EARTH","BSTAR":"0.00001240100000","RCS_SIZE":"LARGE","RA_OF_ASC_NODE":"11.7507","TIME_SYSTEM":"UTC","MEAN_ELEMENT_THEORY":"SGP4","ARG_OF_PERICENTER":"41.6747","MEAN_ANOMALY":"318.4392","ELEMENT_SET_NO":"999","TLE_LINE1":"1 51857U 22022F   22328.43810006 -.00000091  00000-0  12401-4 0  9996","PERIAPSIS":"538.420","APOAPSIS":"541.090","SITE":"AFETR","INCLINATION":"53.2189","TLE_LINE2":"2 51857  53.2189  11.7507 0001930  41.6747 318.4392 15.08836882 41676","FILE":"3669022","PERIOD":"95.438","MEAN_MOTION":"15.08836882","OBJECT_ID":"2022-022F","LAUNCH_DATE":"2022-03-03","OBJECT_TYPE":"PAYLOAD","CLASSIFICATION_TYPE":"U","REV_AT_EPOCH":"4167","SEMIMAJOR_AXIS":"6917.890","MEAN_MOTION_DOT":"-0.00000091"},{"PERIAPSIS":"538.279","INCLINATION":"53.2177","SITE":"AFETR","APOAPSIS":"541.189","TLE_LINE2":"2 51858  53.2177   9.9561 0002103  42.5538 317.5616 15.08843728 41737","MEAN_ELEMENT_THEORY":"SGP4","TIME_SYSTEM":"UTC","MEAN_ANOMALY":"317.5616","ARG_OF_PERICENTER":"42.5538","TLE_LINE1":"1 51858U 22022G   22328.83921884  .00002817  00000-0  19499-3 0  9998","ELEMENT_SET_NO":"999","SEMIMAJOR_AXIS":"6917.869","CLASSIFICATION_TYPE":"U","REV_AT_EPOCH":"4173","MEAN_MOTION_DOT":"0.00002817","FILE":"3669335","LAUNCH_DATE":"2022-03-03","OBJECT_ID":"2022-022G","MEAN_MOTION":"15.08843728","PERIOD":"95.437","OBJECT_TYPE":"PAYLOAD","NORAD_CAT_ID":"51858","MEAN_MOTION_DDOT":"0.0000000000000","REF_FRAME":"TEME","ECCENTRICITY":"0.00021030","OBJECT_NAME":"STARLINK-3563","EPHEMERIS_TYPE":"0","COUNTRY_CODE":"US","EPOCH":"2022-11-24T20:08:28.507776","RCS_SIZE":"LARGE","BSTAR":"0.00019499000000","CENTER_NAME":"EARTH","RA_OF_ASC_NODE":"9.9561","DECAY_DATE":null,"GP_ID":"218723907"},{"REV_AT_EPOCH":"4186","CLASSIFICATION_TYPE":"U","SEMIMAJOR_AXIS":"6917.877","MEAN_MOTION_DOT":"0.00001135","FILE":"3669335","PERIOD":"95.437","MEAN_MOTION":"15.08841255","LAUNCH_DATE":"2022-03-03","OBJECT_ID":"2022-022H","OBJECT_TYPE":"PAYLOAD","PERIAPSIS":"538.182","SITE":"AFETR","APOAPSIS":"541.301","INCLINATION":"53.2202","TLE_LINE2":"2 51859  53.2202   0.1677 0002254  38.8680 321.2474 15.08841255 41862","TIME_SYSTEM":"UTC","MEAN_ELEMENT_THEORY":"SGP4","ARG_OF_PERICENTER":"38.8680","MEAN_ANOMALY":"321.2474","ELEMENT_SET_NO":"999","TLE_LINE1":"1 51859U 22022H   22328.78861257  .00001135  00000-0  89432-4 0  9997","EPOCH":"2022-11-24T18:55:36.126048","CENTER_NAME":"EARTH","BSTAR":"0.00008943200000","RCS_SIZE":"LARGE","RA_OF_ASC_NODE":"0.1677","DECAY_DATE":null,"GP_ID":"218724157","NORAD_CAT_ID":"51859","MEAN_MOTION_DDOT":"0.0000000000000","REF_FRAME":"TEME","ECCENTRICITY":"0.00022540","OBJECT_NAME":"STARLINK-3560","COUNTRY_CODE":"US","EPHEMERIS_TYPE":"0"}];
